YAOGAN-3                
1 32289U 07055A   26177.18850167  .00002470  00000+0  25668-3 0  9992
2 32289  97.8158 206.9778 0001901  82.3836 277.7597 14.90815705  7218
YAOGAN-4                
1 33446U 08061A   26176.80230669  .00000989  00000+0  12741-3 0  9994
2 33446  97.9307 110.2489 0015383  46.9056 313.3442 14.83215733946941
YAOGAN-7                
1 36110U 09069A   26177.16048459  .00000481  00000+0  73591-4 0  9996
2 36110  98.0063  62.9717 0024950  13.6727 346.5154 14.78018203890950
ZIYUAN 1-02C (ZY 1-02C) 
1 38038U 11079A   26177.19214506  .00000371  00000+0  13645-3 0  9993
2 38038  98.4071 244.3125 0005166 284.3530 152.0654 14.38221246760501
YAOGAN-22               
1 40275U 14063A   26177.15971296 -.00000032  00000+0  40509-4 0  9992
2 40275 100.7734 328.5823 0006544 165.4830 194.6470 13.15531151560995
YAOGAN-24               
1 40310U 14072A   26177.16485781  .00000581  00000+0  91800-4 0  9990
2 40310  98.1495 314.5792 0013274 233.1782 126.8210 14.76095740625040
YAOGAN-26               
1 40362U 14088A   26177.18632588  .00036273  00000+0  70026-3 0  9998
2 40362  97.0643 177.1855 0004930  45.4026 314.7626 15.47711556639095
YAOGAN-27               
1 40878U 15040A   26177.22707909  .00000327  00000+0  97365-3 0  9990
2 40878 100.1154 163.2174 0007929 188.4668 171.6313 13.16072313518859
YAOGAN-28               
1 41026U 15064A   26177.16660972  .00006942  00000+0  26005-3 0  9995
2 41026  97.3079 315.2460 0011401 152.8183 207.3655 15.27527332592052
YAOGAN-29               
1 41038U 15069A   26177.21851632 -.00000090  00000+0 -44586-5 0  9990
2 41038  98.0029 205.8654 0002134  39.2284 320.9083 14.83089687571961
